# Made by eph2tle, compiled Jan  4 2022 21:43:10
# Run at Tue Feb  8 10:33:56 2022
#
#    The following TLEs (Two-Line Elements) were generated by fitting
# a numerically-integrated ephemeris,  based on the orbit given below,
# to the SDP4/SGP4 models.  Each TLE is good for the interval between
# its epoch and the epoch of the subsequent TLE (usually one day).
# The maximum deviation between the numerically integrated ephemerides
# and the TLE-based ephemeris, in kilometers,  is given for each TLE
# as the "worst residual".
#
#    This fitting is done using the 'eph2tle' code packaged with Find_Orb.
# The code has details on how the TLEs were computed :
#
#    https://github.com/Bill-Gray/find_orb/eph2tle.cpp
#
#    Be warned:  the error given is that between the numerically
# integrated ephems and the TLE model.  There will usually be at
# least some additional difference between the ephems and the actual
# motion of the satellite,  especially if the ephemerides are based
# on a short arc.  If the following orbital elements say something
# like "[based on] 10 observations 2015 Jan. 1-13",  and the TLEs
# are for 2015 May,  the extrapolation may be tenuous at best.  If
# your application requires a specific level of accuracy,  you may
# want to contact me;  I can give you some idea as to the fit of the
# underlying data (and possibly TLEs based on newer data).
#
#   You can usually find the underlying observational data,  and the
# fitted orbit,  residuals,  ephemerides,  and sometimes some comments
# about the object,  among the pages listed at
#
#    https://www.projectpluto.com/pluto/mpecs/pseudo.htm
#
#    WARNING:  for this object,  "normal" TLEs cannot be fitted.  (This
# usually means an object with an hyperbolic or nearly-parabolic orbit.)
# For this and similar cases,   an alternative model is used,  in which
# most of the traditional TLE data is replaced by six signed 8-digit hex
# numbers.  These six numbers are a state vector,  numerically integrated
# using a simplified force model.  This is necessary for objects at L2 or
# L1,  and sometimes for objects in high orbits where the SDP4/SGP4 model
# fails.  Some documentation is in 'get_el.cpp' in the source code at
# https://www.github.com/Bill-Gray/sat_code ; look for 'hex' in that file,
# with the actual integration done in 'sdp4.cpp'.  But be aware:  it's my
# own extension,  doesn't work with other code,  and is therefore used
# only when necessary.
#
#    Also,  if you use a TLE outside the "correct" time range (between
# its MJD and that of the next TLE),  all bets are off.  I've carefully
# computed and minimized the worst error over the "correct" time frame,
# but the ephemeris may (or may not) diverge wildly outside of it.
#
# Ephem range: 59580.000000 59945.000000 1.000000
# Created Tue Feb  8 10:32:59 2022
# Ephemeris start:  1 Jan 2022  0:00:00
# Ephemeris end:    1 Jan 2023  0:00:00
# Times are all TDT
# Positions/velocities are in ecliptic J2000
# Orbital elements:  2019-040A = NORAD 44432 = Spektr-RG
#    Perihelion 2022 Jan 4.4412801 +/- 8.66e-5 TT = 10:35:26.60 (JD 2459583.9412801)
# Epoch 2022 Jan 10.0 TT; AMR 0.016333 +/- 0.00021 m^2/kg   Earth MOID: 0.0111
# M   5.2554606708 +/- 0.00008        (J2000 ecliptic)          Find_Orb
# n   0.9454444181 +/- 1.62e-7        Peri.   73.3462954 +/- 0.00031
# a   1.0281237252 +/- 1.17e-7        Node    30.5269871 +/- 0.00023
# e   0.033449310 +/- 8.34e-8         Incl.    0.2265399 +/- 0.0000008
# P   1.04/380.77d           H 27.5   G  0.15   U  2.2
# q 0.9937336951 +/- 2.82e-8    Q 1.0625137553 +/- 2.07e-7
# 125 of 459 observations 2021 Nov. 27-2022 Feb. 8; mean residual 0".509
#
# After 2022 Mar 23 :
#
# Orbital elements:  2019-040A = NORAD 44432 = Spektr-RG
#    Perihelion 2022 Mar 29.768 +/- 6.26e-5 TT = 18:26:18 (JD 2459668.268)
# Epoch 2022 Apr 23.0 TT; AMR 0.019524 +/- 0.00027 m^2/kg   Earth MOID: 0.0086
# M  22.076525 +/- 0.000058           Ju: 3.8542   Ve: 0.2926   Me: 0.5637
# n   0.911058 +/- 3.32e-7            Peri.  288.228 +/- 0.00037   Find_Orb
# a   1.053833 +/- 2.56e-7            Node   260.381 +/- 0.00037
# e   0.04171 +/- 2.16e-7             Incl.    0.224 +/- 4.51e-7
# P   1.08/395.14d           H 27.9   G  0.15   U  2.7
# q 1.009876 +/- 2.59e-8    Q 1.097789 +/- 4.94e-7          (J2000 ecliptic)
# 82 of 386 observations 2022 Mar. 24-May 4; mean residual 0".344
#
#  After 2022 July 1 :
#
# Orbital elements:  2019-040A = NORAD 44432 = Spektr-RG
#    Perihelion 2022 Oct 21.87801 +/- 0.0195 TT;  Constraint: A=0.016
# Epoch 2022 Aug  3.0 TT; AMR 0.016 +/- 6.29e-10 m^2/kg   Earth MOID: 0.0110
# M 284.45496057 +/- 0.019            (J2000 ecliptic)             Find_Orb
# n   0.94575512 +/- 8.68e-6          Peri.  214.16942 +/- 0.045
# a   1.02789853 +/- 6.29e-6          Node   172.69359 +/- 0.046
# e   0.0096712 +/- 1.79e-5           Incl.    0.27936 +/- 0.00020
# P   1.04/380.64d           H 26.8   G  0.15   U  4.9
# q 1.01795751 +/- 1.56e-5    Q 1.03783955 +/- 2.28e-5
# From 44 observations 2022 July 28-Aug. 3; mean residual 0".271
#
# After 2022 September 13 :
#
# Orbital elements:  2019-040A = NORAD 44432 = Spektr-RG
#    Perihelion 2022 Nov 8.5924090 +/- 2.98e-5 TT = 14:13:04.13 (JD 2459892.0924090)
# Epoch 2022 Oct 21.0 TT; AMR 0.018126 +/- 0.000136 m^2/kg   Earth MOID: 0.0086
# M 343.0775148168 +/- 0.000028       (J2000 ecliptic)             Find_Orb
# n   0.9101824945 +/- 9.82e-8        Peri.  317.5071179 +/- 0.00015
# a   1.0545092579 +/- 7.58e-8        Node    88.5245125 +/- 0.00013
# e   0.050608641 +/- 5.66e-8         Incl.    0.1936090 +/- 2.13e-7
# P   1.08/395.52d           H 27.05  G  0.15   U  1.9
# q 1.0011419763 +/- 1.35e-8    Q 1.1078765394 +/- 1.39e-7
# 213 of 237 observations 2022 Sept. 13-Nov. 16; mean residual 0".470
#
# 1 NoradU COSPAR   Epoch.epoch     dn/dt/2  d2n/dt2/6 BSTAR    T El# C
# 2 NoradU Inclina RAAscNode Eccent  ArgPeri MeanAno  MeanMotion Rev# C

# Worst residual: 0.51 km
# MJD 59580.000000 (2022 Jan  1  0:00)
2019-040A = NORAD 44432 = Spektr-RG
1 44432U 19040A   21365.99919926 -00B8U7UN +00HZ2ND9 +00HLLI1JH 15007
2 44432                          -0000KXR1 -0000F04Q +0000BH75     08

# Worst residual: 0.64 km
# MJD 59581.000000 (2022 Jan  2  0:00)
2019-040A = NORAD 44432 = Spektr-RG
1 44432U 19040A   22001.99919926 -00BDQIM6 +00HVM57Q +00HO8XNPH 15004
2 44432                          -0000JWMO -0000DT3E +0000AM8Y     02

# Worst residual: 0.77 km
# MJD 59582.000000 (2022 Jan  3  0:00)
2019-040A = NORAD 44432 = Spektr-RG
1 44432U 19040A   22002.99919926 -00BIEWZC +00HSG26M +00HQP022H 15001
2 44432                          -0000J3X5 -0000CLM8 +00009RNO     06

# Worst residual: 0.74 km
# MJD 59583.000000 (2022 Jan  4  0:00)
2019-040A = NORAD 44432 = Spektr-RG
1 44432U 19040A   22003.99919926 -00BMXELJ +00HPK9Y0 +00HSXOHUH 15009
2 44432                          -0000IJ9G -0000BFJV +00008WJF     08

# Worst residual: 0.56 km
# MJD 59584.000000 (2022 Jan  5  0:00)
2019-040A = NORAD 44432 = Spektr-RG
1 44432U 19040A   22004.99919926 -00BRBT26 +00HMY9DU +00HUYQW7H 15005
2 44432                          -0000I5NA -0000ACFC +0000803V     07

# Worst residual: 0.49 km
# MJD 59585.000000 (2022 Jan  6  0:00)
2019-040A = NORAD 44432 = Spektr-RG
1 44432U 19040A   22005.99919926 -00BVNN9W +00HKL69L +00HWRT86H 15000
2 44432                          -0000HXNK -00009D9O +000071S5     02

# Worst residual: 0.27 km
# MJD 59586.000000 (2022 Jan  7  0:00)
2019-040A = NORAD 44432 = Spektr-RG
1 44432U 19040A   22006.99919926 -00BZY366 +00HIFZS2 +00HYCDISH 15000
2 44432                          -0000HTQT -00008IKY +0000618A     04

# Worst residual: 0.27 km
# MJD 59587.000000 (2022 Jan  8  0:00)
2019-040A = NORAD 44432 = Spektr-RG
1 44432U 19040A   22007.99919926 -00C47XNC +00HGHMQV +00HZNVWIH 15005
2 44432                          -0000HSGY -00007SFL +00004YC2     04

# Worst residual: 0.39 km
# MJD 59588.000000 (2022 Jan  9  0:00)
2019-040A = NORAD 44432 = Spektr-RG
1 44432U 19040A   22008.99919926 -00C8HNZ7 +00HEP0RO +00I0PS85H 15003
2 44432                          -0000HSLL -000076LH +00003T53     05

# Worst residual: 0.62 km
# MJD 59589.000000 (2022 Jan 10  0:00)
2019-040A = NORAD 44432 = Spektr-RG
1 44432U 19040A   22009.99919926 -00CCRHTB +00HD166A +00I1HJ6KH 15006
2 44432                          -0000HT4X -00006OOR +00002LSE     03

# Worst residual: 0.80 km
# MJD 59590.000000 (2022 Jan 11  0:00)
2019-040A = NORAD 44432 = Spektr-RG
1 44432U 19040A   22010.99919926 -00CH1F61 +00HBH6ZN +00I1YMXAH 15003
2 44432                          -0000HTAR -00006A8V +00001CGW     06

# Worst residual: 0.91 km
# MJD 59591.000000 (2022 Jan 12  0:00)
2019-040A = NORAD 44432 = Spektr-RG
1 44432U 19040A   22011.99919926 -00CLBA19 +00HA0BBI +00I24NDEH 15005
2 44432                          -0000HSGX -00005YSJ +000001E9     06

# Worst residual: 0.94 km
# MJD 59592.000000 (2022 Jan 13  0:00)
2019-040A = NORAD 44432 = Spektr-RG
1 44432U 19040A   22012.99919926 -00CPKRNC +00H8LVFW +00I1Z6CDH 15005
2 44432                          -0000HQ5O -00005PUB -00001B7C     00

# Worst residual: 0.94 km
# MJD 59593.000000 (2022 Jan 14  0:00)
2019-040A = NORAD 44432 = Spektr-RG
1 44432U 19040A   22013.99919926 -00CTTHF0 +00H79BUL +00I1HVNKH 15008
2 44432                          -0000HLYS -00005IWG -00002P3F     02

# Worst residual: 0.95 km
# MJD 59594.000000 (2022 Jan 15  0:00)
2019-040A = NORAD 44432 = Spektr-RG
1 44432U 19040A   22014.99919926 -00CY0XPT +00H5Y9DE +00I0OH8RH 15004
2 44432                          -0000HFL7 -00005DGI -0000440Q     02

# Worst residual: 1.00 km
# MJD 59595.000000 (2022 Jan 16  0:00)
2019-040A = NORAD 44432 = Spektr-RG
1 44432U 19040A   22015.99919926 -00D26KOG +00H4ODEH +00HZIRE1H 15006
2 44432                          -0000H6TD -000058YS -00005JOX     06

